CFOSAT                  
1 43662U 18083A   21323.24290111  .00000647  00000-0  36793-4 0  9991
2 43662  97.4410 345.1501 0001470  91.8556  40.7284 15.16316859169302
